#aV2016  1 31  0  0  0.00000000     288 DD+AD WGS84 FIT  NGA
## 1882      0.00000000   300.00000000 57418 0.0000000000000
+   30     1  2  3  5  6  7  8  9 10 11 12 13 14 15 16 17 18
+         19 20 21 22 23 24 25 26 27 28 29 30 31  0  0  0  0
+          0  0  0  0  0  0  0  0  0  0  0  0  0  0  0  0  0
+          0  0  0  0  0  0  0  0  0  0  0  0  0  0  0  0  0
+          0  0  0  0  0  0  0  0  0  0  0  0  0  0  0  0  0
++         2  2  2  2  2  2  2  2  2  2  2  2  2  2  2  2  2
++         2  2  2  2  2  2  2  2  2  2  2  2  2  0  0  0  0
++         0  0  0  0  0  0  0  0  0  0  0  0  0  0  0  0  0
++         0  0  0  0  0  0  0  0  0  0  0  0  0  0  0  0  0
++         0  0  0  0  0  0  0  0  0  0  0  0  0  0  0  0  0
%c cc cc ccc ccc cccc cccc cccc cccc ccccc ccccc ccccc ccccc
%c cc cc ccc ccc cccc cccc cccc cccc ccccc ccccc ccccc ccccc
%f  0.0000000  0.000000000  0.00000000000  0.000000000000000
%f  0.0000000  0.000000000  0.00000000000  0.000000000000000
%i    0    0    0    0      0      0      0      0         0
%i    0    0    0    0      0      0      0      0         0
/*      NGA, ST. LOUIS,MO.                                  
/*   EPHEMERIS COMPUTED FROM 2 DAYS OF DATA                 
/*   EPOCHA v2.4 SMOOTHER                                   
/*   G1762 IERS2010 SATAF SATAPC                            
*  2016  1 31 19 45  0.00000000
P  1 -19716.992993  -9096.822144  15365.766398     10.545018                    
V  1  -9968.981013 -16916.683377 -22486.618981      0.009748                    
P  2  13465.063502  22731.439684   4834.299178    599.481665                    
V  2  -5726.278475  -2575.720330  30292.428018      0.001048                    
P  3 -16345.351454    687.079166  20926.095584    -18.810630                    
V  3  10023.551181 -24624.967022   8623.173711     -0.048683                    
P  5   6104.245457  18581.721735 -17951.380957   -150.258497                    
V  5 -10734.819833  20173.732056  17492.375933      0.034588                    
P  6   2176.268813  21342.922009  15669.995513    138.176488                    
V  6 -13289.114777 -14900.478863  22141.162526      0.061030                    
P  7 -13593.936197   6639.988969 -21720.935876    471.538398                    
V  7 -15847.575203 -22896.007837   2521.773920     -0.015635                    
P  8 -21982.041151  -6776.667837 -13231.458040    -22.138121                    
V  8  16528.110671  -4124.760559 -25223.983099     -0.014210                    
P  9 -23802.355616   8536.175151  -8160.118777     61.381904                    
V  9 -10588.740154  -1567.268752  29305.341930      0.077592                    
P 10  10553.443294 -24343.344410     96.461626     47.577025                    
V 10   2711.979705   1059.937121 -31757.846689     -0.025368                    
P 11 -23866.962459  -9464.038706   6360.072941   -630.043823                    
V 11  -4873.901924  -8730.425647 -28741.954025     -0.019042                    
P 12  14085.343242   4123.770274  22010.035714    364.891315                    
V 12 -12386.910605  25285.411709   3383.799048      0.026521                    
P 13  14616.381892  12593.952614 -18351.108838   -182.242507                    
V 13 -23031.980134   1263.221091 -17696.993900     -0.025564                    
P 14  10787.417155 -14159.117046  19915.921704      5.814181                    
V 14  24804.648458    378.689194 -13478.486616     -0.023117                    
P 15  24462.972568   3680.086271 -10244.418012   -294.981975                    
V 15 -12113.805410   5040.693477 -27098.181059     -0.018499                    
P 16  -3747.384455 -18721.780409 -18373.920671    -43.618884                    
V 16  11918.549264 -19981.231688  18383.991718      0.031969                    
P 17 -11631.711540  14028.210972  19576.231497   -199.916790                    
V 17 -24210.978379    384.082968 -15104.875263     -0.007409                    
P 18  15739.422225 -18358.317993 -10151.883591    478.767219                    
V 18  -1690.175219  14218.927496 -27237.896854      0.039759                    
P 19  -8089.930979  14278.514977  20766.515548   -524.687952                    
V 19 -26731.480863   -233.892966  -9732.022775     -0.001785                    
P 20  15988.096411   2576.589623 -21215.564703    389.630209                    
V 20  -8422.451618  25347.985422  -3234.789158      0.026491                    
P 21  10964.568658 -10925.076948 -20838.796541   -508.141260                    
V 21  17601.695306  22169.185958  -2569.806834     -0.019480                    
P 22   -981.578313 -23295.027976  12830.564770    403.913788                    
V 22   9073.438560 -13656.243237 -24697.540011     -0.054280                    
P 23 -26609.802174    483.508962   3307.549423   -157.767833                    
V 23   3617.888626  -3259.863845  30783.183793     -0.019080                    
P 24  20302.133066  11377.172404  12925.163081    -11.622007                    
V 24   8081.787965  14512.429711 -25186.868997     -0.005786                    
P 25  17211.473188 -10401.471759  17146.082983   -109.045757                    
V 25  -7483.810755  20753.989063  20162.152947     -0.065523                    
P 26   2990.173675 -24412.123259  -9976.865279   -235.178095                    
V 26   7382.701599 -10626.599198  28238.125401     -0.161420                    
P 27 -13013.180570 -12169.497626 -19764.868757     58.525630                    
V 27  24710.993557  -3802.372090 -13799.153594      0.035240                    
P 28 -12071.820859  23621.638190    697.831192    499.223103                    
V 28  -1772.068322   -818.014408 -32403.933651      0.026526                    
P 29  25435.942747  -5117.797542  -5558.738823    653.202043                    
V 29   7190.659063   1921.684478  31070.801146      0.009467                    
P 30  -6017.969900  16715.059484 -19724.569282     91.077624                    
V 30 -14455.776998 -20539.512147 -13076.400781      0.044804                    
P 31  -3083.456776 -21973.392482  14434.593304    284.640070                    
V 31  11977.551368  13925.847734  24300.507852     -0.016395                    
EOF
